NORAD_CAT_ID,OBJECT_NAME,OBJECT_TYPE,EPOCH,MEAN_MOTION,ECCENTRICITY,INCLINATION,RA_OF_ASC_NODE,ARG_OF_PERICENTER,MEAN_ANOMALY,BSTAR,MEAN_MOTION_DOT,MEAN_MOTION_DDOT,TLE_LINE0,TLE_LINE1,TLE_LINE2,SEMIMAJOR_AXIS,PERIOD,APOGEE,PERIGEE,DECAYED
51992.0,STARLINK-3643,PAYLOAD,2022-10-25 19:05:47,15.08828201,0.000182,53.2171,144.8278,55.1156,305.0007,-0.00016661,-2.938e-05,0.0,0 STARLINK-3643,1 51992U 22025AN  22298.79568296 -.00002938  00000-0 -16661-3 0  9999,2 51992  53.2171 144.8278 0001820  55.1156 305.0007 15.08828201 36633,6917.916,95.438,541.0409999999998,538.5219999999998,0.0
51992.0,STARLINK-3643,PAYLOAD,2022-10-25 20:41:10,15.08828381,0.0001806,53.2171,144.5303,55.6659,304.4503,-0.00016229,-2.869e-05,0.0,0 STARLINK-3643,1 51992U 22025AN  22298.86192313 -.00002869  00000-0 -16229-3 0  9993,2 51992  53.2171 144.5303 0001806  55.6659 304.4503 15.08828381 35098,6917.916,95.438,541.03,538.5319999999998,0.0
51992.0,STARLINK-3643,PAYLOAD,2022-10-26 12:35:01,15.0884738,0.0001766999999999,53.2168,141.5564,51.4026,308.7124,-0.0003846999999999,-6.407e-05,0.0,0 STARLINK-3643,1 51992U 22025AN  22299.52432256 -.00006407  00000-0 -38470-3 0  9994,2 51992  53.2168 141.5564 0001767  51.4026 308.7124 15.08847380 35195,6917.858,95.437,540.945,538.5,0.0
51992.0,STARLINK-3643,PAYLOAD,2022-10-26 20:31:58,15.08809075,0.0001766,53.2169,140.0695,54.7874,305.3283,5.016800000000001e-05,5.1e-06,0.0,0 STARLINK-3643,1 51992U 22025AN  22299.85554055  .00000510  00000-0  50168-4 0  9998,2 51992  53.2169 140.0695 0001766  54.7874 305.3283 15.08809075 36796,6917.975,95.44,541.062,538.618,0.0
51992.0,STARLINK-3643,PAYLOAD,2022-10-27 01:18:07,15.08819282,0.0001513,53.2164,139.1746,79.8223,280.29400000000004,4.632e-05,4.49e-06,0.0,0 STARLINK-3643,1 51992U 22025AN  22300.05425621  .00000449  00000-0  46320-4 0  9995,2 51992  53.2164 139.1746 0001513  79.8223 280.2940 15.08819282 36829,6917.944,95.439,540.855,538.762,0.0
51992.0,STARLINK-3643,PAYLOAD,2022-10-27 15:36:35,15.08835618,0.0001541999999999,53.2177,136.5016,46.8452,313.2669,0.00016831,2.391e-05,0.0,0 STARLINK-3643,1 51992U 22025AN  22300.65040723  .00002391  00000-0  16831-3 0  9998,2 51992  53.2177 136.5016 0001542  46.8452 313.2669 15.08835618 36910,6917.894,95.438,540.826,538.692,0.0
51992.0,STARLINK-3643,PAYLOAD,2022-10-27 20:22:44,15.08841111,0.0001703,53.217,135.6089,54.368,305.747,0.0002046999999999,2.971e-05,0.0,0 STARLINK-3643,1 51992U 22025AN  22300.84912327  .00002971  00000-0  20470-3 0  9995,2 51992  53.2170 135.6089 0001703  54.3680 305.7470 15.08841111 35391,6917.877,95.437,540.92,538.564,0.0
51992.0,STARLINK-3643,PAYLOAD,2022-10-27 23:33:30,15.08843311,0.0001792,53.2169,135.014,54.7269,305.3891,0.00021444,3.127e-05,0.0,0 STARLINK-3643,1 51992U 22025AN  22300.98160171  .00003127  00000-0  21444-3 0  9998,2 51992  53.2169 135.0140 0001792  54.7269 305.3891 15.08843311 36967,6917.87,95.437,540.975,538.496,0.0
51992.0,STARLINK-3643,PAYLOAD,2022-10-28 05:55:02,15.08846068,0.0001798,53.217,133.8245,54.8124,305.3036,0.00019888,2.879e-05,0.0,0 STARLINK-3643,1 51992U 22025AN  22301.24656014  .00002879  00000-0  19888-3 0  9996,2 51992  53.2170 133.8245 0001798  54.8124 305.3036 15.08846068 35454,6917.861999999999,95.437,540.971,538.4830000000002,0.0
51992.0,STARLINK-3643,PAYLOAD,2022-10-28 20:13:31,15.08843124,0.0001553,53.2173,131.1479,36.9329,323.177,0.00015054,2.109e-05,0.0,0 STARLINK-3643,1 51992U 22025AN  22301.84272125  .00002109  00000-0  15054-3 0  9996,2 51992  53.2173 131.1479 0001553  36.9329 323.1770 15.08843124 35547,6917.871,95.437,540.81,538.661,0.0
51992.0,STARLINK-3643,PAYLOAD,2022-10-29 00:59:40,15.08843067,0.0001615,53.2173,130.2559,57.7224,302.3924,0.00016091,2.274e-05,0.0,0 STARLINK-3643,1 51992U 22025AN  22302.04144076  .00002274  00000-0  16091-3 0  9997,2 51992  53.2173 130.2559 0001615  57.7224 302.3924 15.08843067 35579,6917.871,95.437,540.8530000000002,538.619,0.0
51992.0,STARLINK-3643,PAYLOAD,2022-10-29 15:18:07,15.08857579,0.0001588999999999,53.2171,127.5791,59.7475,300.3675,-5.3132e-06,-3.73e-06,0.0,0 STARLINK-3643,1 51992U 22025AN  22302.63759166 -.00000373  00000-0 -53132-5 0  9993,2 51992  53.2171 127.5791 0001589  59.7475 300.3675 15.08857579 35668,6917.8269999999975,95.436,540.7909999999998,538.592,0.0
51992.0,STARLINK-3643,PAYLOAD,2022-10-30 05:36:36,15.08851372,0.0001613,53.2172,124.903,57.6571,302.4577,-6.835e-05,-1.376e-05,0.0,0 STARLINK-3643,1 51992U 22025AN  22303.23375244 -.00001376  00000-0 -68350-4 0  9992,2 51992  53.2172 124.9030 0001613  57.6571 302.4577 15.08851372 35757,6917.846,95.437,540.826,538.595,0.0
51992.0,STARLINK-3643,PAYLOAD,2022-10-30 21:30:27,15.08840593,0.000164,53.217,121.9295,58.3937,301.7215,-5.1558e-05,-1.109e-05,0.0,0 STARLINK-3643,1 51992U 22025AN  22303.89615589 -.00001109  00000-0 -51558-4 0  9999,2 51992  53.2170 121.9295 0001640  58.3937 301.7215 15.08840593 35854,6917.879,95.438,540.878,538.609,0.0
51992.0,STARLINK-3643,PAYLOAD,2022-10-31 11:48:55,15.08847487,0.0001633,53.2173,119.2533,55.2659,304.8487,4.3973e-06,-2.18e-06,0.0,0 STARLINK-3643,1 51992U 22025AN  22304.49230796 -.00000218  00000-0  43973-5 0  9991,2 51992  53.2173 119.2533 0001633  55.2659 304.8487 15.08847487 35945,6917.858,95.437,540.852,538.5930000000002,0.0
51992.0,STARLINK-3643,PAYLOAD,2022-10-31 18:10:27,15.08848988,0.0001663,53.2169,118.0638,54.8087,305.306,4.8519e-05,4.84e-06,0.0,0 STARLINK-3643,1 51992U 22025AN  22304.75726408  .00000484  00000-0  48519-4 0  9994,2 51992  53.2169 118.0638 0001663  54.8087 305.3060 15.08848988 37533,6917.853,95.437,540.868,538.567,0.0
51992.0,STARLINK-3643,PAYLOAD,2022-10-31 21:21:13,15.08848308,0.000158,53.2175,117.4692,51.9617,308.1517,5.0934e-05,5.23e-06,0.0,0 STARLINK-3643,1 51992U 22025AN  22304.88974378  .00000523  00000-0  50934-4 0  9997,2 51992  53.2175 117.4692 0001580  51.9617 308.1517 15.08848308 36003,6917.855,95.437,540.813,538.627,0.0
51992.0,STARLINK-3643,PAYLOAD,2022-11-01 18:01:15,15.08833917,0.0001658,53.2174,113.6039,50.3362,309.7777,4.0365e-05,3.54e-06,0.0,0 STARLINK-3643,1 51992U 22025AN  22305.75087322  .00000354  00000-0  40365-4 0  9997,2 51992  53.2174 113.6039 0001658  50.3362 309.7777 15.08833917 36130,6917.899,95.438,540.911,538.617,0.0
51992.0,STARLINK-3643,PAYLOAD,2022-11-01 22:47:24,15.08840326,0.0001715,53.2172,112.712,50.3917,309.7226,5.8564e-05,6.44e-06,0.0,0 STARLINK-3643,1 51992U 22025AN  22305.94958876  .00000644  00000-0  58564-4 0  9991,2 51992  53.2172 112.7120 0001715  50.3917 309.7226 15.08840326 37715,6917.879,95.438,540.931,538.558,0.0
51992.0,STARLINK-3643,PAYLOAD,2022-11-02 17:52:02,15.0883576,0.0001701,53.2172,109.1433,52.9837,307.131,8.138399999999999e-05,1.007e-05,0.0,0 STARLINK-3643,1 51992U 22025AN  22306.74447107  .00001007  00000-0  81384-4 0  9990,2 51992  53.2172 109.1433 0001701  52.9837 307.1310 15.08835760 36289,6917.893,95.438,540.935,538.582,0.0
51992.0,STARLINK-3643,PAYLOAD,2022-11-02 21:02:48,15.08839033,0.00017,53.2175,108.5487,49.7222,310.3919,-5.4323e-05,-1.153e-05,0.0,0 STARLINK-3643,1 51992U 22025AN  22306.87695265 -.00001153  00000-0 -54323-4 0  9991,2 51992  53.2175 108.5487 0001700  49.7222 310.3919 15.08839033 37857,6917.8830000000025,95.438,540.924,538.572,0.0
51992.0,STARLINK-3643,PAYLOAD,2022-11-03 12:56:39,15.08845093,0.0001646,53.2177,105.5749,47.4825,312.6306,2.0038e-05,3.1e-07,0.0,0 STARLINK-3643,1 51992U 22025AN  22307.53934689  .00000031  00000-0  20038-4 0  9999,2 51992  53.2177 105.5749 0001646  47.4825 312.6306 15.08845093 36408,6917.865,95.437,540.869,538.591,0.0
51992.0,STARLINK-3643,PAYLOAD,2022-11-03 19:18:12,15.08834916,0.0001783,53.2171,104.3851,51.3321,308.783,9.2109e-05,1.178e-05,0.0,0 STARLINK-3643,1 51992U 22025AN  22307.80430965  .00001178  00000-0  92109-4 0  9998,2 51992  53.2171 104.3851 0001783  51.3321 308.7830 15.08834916 36444,6917.896,95.438,540.994,538.5269999999998,0.0
51992.0,STARLINK-3643,PAYLOAD,2022-11-04 12:47:26,15.08843442,0.0001614,53.2171,101.1137,42.0527,318.0589,6.288100000000001e-05,7.13e-06,0.0,0 STARLINK-3643,1 51992U 22025AN  22308.53294477  .00000713  00000-0  62881-4 0  9993,2 51992  53.2171 101.1137 0001614  42.0527 318.0589 15.08843442 36555,6917.87,95.437,540.851,538.618,0.0
51992.0,STARLINK-3643,PAYLOAD,2022-11-04 19:08:58,15.08844713,0.0001641999999999,53.2171,99.9243,42.8157,317.2963,6.9444e-05,8.17e-06,0.0,0 STARLINK-3643,1 51992U 22025AN  22308.79790305  .00000817  00000-0  69444-4 0  9999,2 51992  53.2171  99.9243 0001642  42.8157 317.2963 15.08844713 38141,6917.866,95.437,540.867,538.595,0.0
51992.0,STARLINK-3643,PAYLOAD,2022-11-05 12:38:14,15.08834775,0.0001758,53.2175,96.6541,49.4532,310.6613,-3.3363e-06,-3.41e-06,0.0,0 STARLINK-3643,1 51992U 22025AN  22309.52655161 -.00000341  00000-0 -33363-5 0  9997,2 51992  53.2175  96.6541 0001758  49.4532 310.6613 15.08834775 36704,6917.896,95.438,540.9780000000002,538.545,0.0
51992.0,STARLINK-3643,PAYLOAD,2022-11-05 18:59:46,15.08831809,0.0001448,53.2177,95.4634,41.8065,318.3038,-4.5499e-05,-1.012e-05,0.0,0 STARLINK-3643,1 51992U 22025AN  22309.79151513 -.00001012  00000-0 -45499-4 0  9996,2 51992  53.2177  95.4634 0001448  41.8065 318.3038 15.08831809 36744,6917.905,95.438,540.7719999999998,538.769,0.0
51992.0,STARLINK-3643,PAYLOAD,2022-11-06 09:18:15,15.08834573,0.0001365,53.2178,92.7865,40.4003,319.709,-6.4038e-05,-1.307e-05,0.0,0 STARLINK-3643,1 51992U 22025AN  22310.38767637 -.00001307  00000-0 -64038-4 0  9990,2 51992  53.2178  92.7865 0001365  40.4003 319.7090 15.08834573 36830,6917.897,95.438,540.706,538.818,0.0
51992.0,STARLINK-3643,PAYLOAD,2022-11-06 17:15:10,15.088347699999998,0.0001822,53.2185,91.3032,48.3344,311.7803,-8.3847e-06,-4.22e-06,0.0,0 STARLINK-3643,1 51992U 22025AN  22310.71887574 -.00000422  00000-0 -83847-5 0  9997,2 51992  53.2185  91.3032 0001822  48.3344 311.7803 15.08834770 38433,6917.896,95.438,541.0219999999998,538.501,0.0
